{
"type": "FeatureCollection",
"name": "case_area_buffered",
"crs": { "type": "name", "properties": { "name": "urn:ogc:def:crs:EPSG::28992" } },
"features": [
{ "type": "Feature", "properties": { "id": null }, "geometry": { "type": "Polygon", "coordinates": [ [ [ 85168.042471974666114, 447390.026444546470884 ], [ 85168.408749907976016, 447391.871788748714607 ], [ 85168.946801554397098, 447393.674551954201888 ], [ 85169.651865890293266, 447395.418782165856101 ], [ 85170.517704057390802, 447397.089045324071776 ], [ 85171.536654568146332, 447398.670561876555439 ], [ 85172.699701099511003, 447400.149337557668332 ], [ 85173.996552275057184, 447401.512287218414713 ], [ 85175.415732729641604, 447402.747350612131413 ], [ 85176.944684650792624, 447403.84359911136562 ], [ 85178.569878898124443, 447404.791332411172334 ], [ 85264.683644899414503, 447449.72025380312698 ], [ 85266.36230811891437, 447450.499496003903914 ], [ 85293.818871191790095, 447461.731726351892576 ], [ 85295.850134867563611, 447462.437783896748442 ], [ 85297.945464659977006, 447462.921666566689964 ], [ 85300.080635678794351, 447463.177780013356823 ], [ 85302.230962414498208, 447463.203163213678636 ], [ 85304.371584136693855, 447462.997522702964488 ], [ 85395.477452514867764, 447449.269241166533902 ], [ 85397.466952420247253, 447448.865257529949304 ], [ 85399.405249591247411, 447448.261670975247398 ], [ 85401.272373206229531, 447447.464700424636248 ], [ 85403.049085764738265, 447446.482557290175464 ], [ 85404.717081296927063, 447445.325360869173892 ], [ 85406.259173975049634, 447444.005034082278144 ], [ 85407.659475183943869, 447442.535180628183298 ], [ 85408.90355722590175, 447440.930944821040612 ], [ 85409.978601973270997, 447439.208855554054026 ], [ 85410.873532937242999, 447437.386655998066999 ], [ 85411.579129392077448, 447435.483120788238011 ], [ 85412.088121378750657, 447433.517862583918031 ], [ 85412.395264609498554, 447431.511129993887153 ], [ 85419.837184684161912, 447358.155060686403885 ], [ 85553.722513050117414, 447312.382298851909582 ], [ 85555.331223744607996, 447311.753490197996143 ], [ 85651.429194499665755, 447269.320619994425215 ], [ 85653.506790824059863, 447268.254198228532914 ], [ 85772.069222275109496, 447198.364764952159021 ], [ 85774.18481960191275, 447196.927871578896884 ], [ 85872.154828748331056, 447120.798310331359971 ], [ 85873.721088785066968, 447119.445615296077449 ], [ 85903.673703046384617, 447090.741026628995314 ], [ 85904.82733543512586, 447089.539379543915857 ], [ 85905.876969248696696, 447088.24589886656031 ], [ 85906.815323115864885, 447086.869557547906879 ], [ 86000.417242682480719, 446936.482473444193602 ], [ 86001.583727478966466, 446934.323398678621743 ], [ 86013.439970624080161, 446908.73887399706291 ], [ 86014.163571744778892, 446906.957635927421506 ], [ 86014.712796560692368, 446905.115148547745775 ], [ 86015.082569674777915, 446903.22843831917271 ], [ 86015.269474006650853, 446901.314940366894007 ], [ 86015.271782369789435, 446899.392337362049147 ], [ 86015.08947343257023, 446897.47839611582458 ], [ 86014.724231915388373, 446895.590803395782132 ], [ 86014.179433022043668, 446893.747002482356038 ], [ 86013.460111249558395, 446891.964031974959653 ], [ 86012.572913864147267, 446890.258368338108994 ], [ 86011.526039473799756, 446888.645773642114364 ], [ 86010.329162264781189, 446887.141149905393831 ], [ 86008.993342602232588, 446885.758401384577155 ], [ 86007.530924821185181, 446884.510306085227057 ], [ 86005.955423152292497, 446883.408397679799236 ], [ 86004.281396836580825, 446882.462858924933244 ], [ 86002.524315583214047, 446881.682427562365774 ], [ 85980.817606858952786, 446873.265540506050456 ], [ 85976.881881037843414, 446861.10056978627108 ], [ 85976.211715405981522, 446859.32241653080564 ], [ 85975.375818636661279, 446857.61589153384557 ], [ 85974.381736685521901, 446855.996400240750518 ], [ 85973.238443505542818, 446854.478562410571612 ], [ 85971.956260035774903, 446853.076080138329417 ], [ 85970.546761030331254, 446851.801614160824101 ], [ 85969.022670568752801, 446850.666669563448522 ], [ 85967.397747190858354, 446849.681491919560358 ], [ 85965.686659693310503, 446848.854974799440242 ], [ 85563.137550885323435, 446677.491190090076998 ], [ 85546.212637324060779, 446669.028733309474774 ], [ 85544.398644760571187, 446668.231477268622257 ], [ 85542.514665185895865, 446667.617631052329671 ], [ 85540.579190736607416, 446667.193219846987631 ], [ 85538.61121899545833, 446666.962409446132369 ], [ 85536.6300665212475, 446666.927465361426584 ], [ 85534.65517924784217, 446667.088730585179292 ], [ 85532.705941613181494, 446667.444622224196792 ], [ 85530.801486292111804, 446667.991647036338691 ], [ 85528.960506400209852, 446668.724435718497261 ], [ 85527.201072012147051, 446669.635795608512126 ], [ 85525.540452795510646, 446670.716781284834724 ], [ 85523.994948501029285, 446671.956782369874418 ], [ 85522.579728972821613, 446673.34362767561106 ], [ 85521.308685249401606, 446674.863704669754952 ], [ 85520.194293216627557, 446676.502093089045957 ], [ 85482.703702175975195, 446737.962078401586041 ], [ 85441.303750132094137, 446791.538486928970087 ], [ 85374.837393783425796, 446867.851710884890053 ], [ 85305.703823575488059, 446935.133489033672959 ], [ 85252.831180189212319, 446984.273945827968419 ], [ 85251.448676510495716, 446985.692804670601618 ], [ 85250.21332241485652, 446987.241474130307324 ], [ 85249.137238198658451, 446988.904759913566522 ], [ 85248.230981530839927, 446990.666343203978613 ], [ 85247.503443869660259, 446992.508940769534092 ], [ 85246.961763226878247, 446994.41447453154251 ], [ 85246.611254135306808, 446996.364248932281043 ], [ 85241.619151758422959, 447035.053042353130877 ], [ 85241.462085620645666, 447037.069323850621004 ], [ 85241.509447099160752, 447039.091159090981819 ], [ 85241.760751915644505, 447041.097874501312617 ], [ 85242.213430440155207, 447043.068951111228671 ], [ 85253.191891821174067, 447081.782472823222633 ], [ 85246.063522311582346, 447248.705125506152399 ], [ 85231.72287191497162, 447271.946869252366014 ], [ 85187.484555036076927, 447319.821212176117115 ], [ 85186.29155976990296, 447321.2387056654552 ], [ 85185.234852358757053, 447322.760512139531784 ], [ 85184.323500740487361, 447324.37357249960769 ], [ 85183.565325509247486, 447326.06404456862947 ], [ 85167.340992784360424, 447367.248889177921228 ], [ 85166.676084702878143, 447369.236295801587403 ], [ 85166.222789591251058, 447371.282367986685131 ], [ 85165.986084502699669, 447373.36464043421438 ], [ 85165.968568392738234, 447375.460250376549084 ], [ 85166.17043358333467, 447377.546188604203053 ], [ 85168.042471974666114, 447390.026444546470884 ] ] ] } }
]
}
